{
  "type": "FeatureCollection",
  "features": [
    {
      "type": "Feature",
      "properties": {
        "norad_id": 31165,
        "name": "FENGYUN 1C DEB",
        "group": "fengyun-1c-debris",
        "lat": 48.33258200542681,
        "lon": -129.75426906525269,
        "alt_km": 679.6630969438675,
        "timestamp": "2025-12-06T20:37:56.353090+00:00",
        "meta_object_name": "FENGYUN 1C DEB",
        "meta_object_id": "1999-025BHT",
        "meta_epoch": "2025-12-06T15:49:46.530048",
        "meta_mean_motion": 14.70908546,
        "meta_eccentricity": 0.00691791,
        "meta_inclination": 98.8856,
        "meta_ra_of_asc_node": 39.9031,
        "meta_arg_of_pericenter": 253.8566,
        "meta_mean_anomaly": 258.5845,
        "meta_ephemeris_type": 0,
        "meta_classification_type": "U",
        "meta_norad_cat_id": 31165,
        "meta_element_set_no": 999,
        "meta_rev_at_epoch": 98665,
        "meta_bstar": 0.002148643,
        "meta_mean_motion_dot": 0.00013614,
        "meta_mean_motion_ddot": 0,
        "tle_line1": "1 31165U 99025BHT 25340.65956632  .00013614  00000+0  21486-2 0  9994",
        "tle_line2": "2 31165  98.8856  39.9031 0069179 253.8566 258.5845 14.70908546986659"
      },
      "geometry": {
        "type": "Point",
        "coordinates": [
          -129.75426906525269,
          48.33258200542681
        ]
      }
    },
    {
      "type": "Feature",
      "properties": {
        "norad_id": 31168,
        "name": "FENGYUN 1C DEB",
        "group": "fengyun-1c-debris",
        "lat": 63.21273470109001,
        "lon": -50.33048837283343,
        "alt_km": 599.4235838774184,
        "timestamp": "2025-12-06T20:37:56.353100+00:00",
        "meta_object_name": "FENGYUN 1C DEB",
        "meta_object_id": "1999-025BHW",
        "meta_epoch": "2025-12-06T15:12:26.518464",
        "meta_mean_motion": 14.67270451,
        "meta_eccentricity": 0.01088473,
        "meta_inclination": 98.8899,
        "meta_ra_of_asc_node": 111.3636,
        "meta_arg_of_pericenter": 82.4329,
        "meta_mean_anomaly": 278.9221,
        "meta_ephemeris_type": 0,
        "meta_classification_type": "U",
        "meta_norad_cat_id": 31168,
        "meta_element_set_no": 999,
        "meta_rev_at_epoch": 99031,
        "meta_bstar": 0.0012649004,
        "meta_mean_motion_dot": 7.741e-05,
        "meta_mean_motion_ddot": 0,
        "tle_line1": "1 31168U 99025BHW 25340.63364026  .00007741  00000+0  12649-2 0  9990",
        "tle_line2": "2 31168  98.8899 111.3636 0108847  82.4329 278.9221 14.67270451990319"
      },
      "geometry": {
        "type": "Point",
        "coordinates": [
          -50.33048837283343,
          63.21273470109001
        ]
      }
    },
    {
      "type": "Feature",
      "properties": {
        "norad_id": 31169,
        "name": "FENGYUN 1C DEB",
        "group": "fengyun-1c-debris",
        "lat": 60.39025858193958,
        "lon": -156.4858729929164,
        "alt_km": 792.8493200262519,
        "timestamp": "2025-12-06T20:37:56.353111+00:00",
        "meta_object_name": "FENGYUN 1C DEB",
        "meta_object_id": "1999-025BHX",
        "meta_epoch": "2025-12-03T19:41:29.870304",
        "meta_mean_motion": 14.26310452,
        "meta_eccentricity": 0.005813,
        "meta_inclination": 99.1573,
        "meta_ra_of_asc_node": 3.8489,
        "meta_arg_of_pericenter": 43.7006,
        "meta_mean_anomaly": 316.8753,
        "meta_ephemeris_type": 0,
        "meta_classification_type": "U",
        "meta_norad_cat_id": 31169,
        "meta_element_set_no": 999,
        "meta_rev_at_epoch": 56977,
        "meta_bstar": 0.003791,
        "meta_mean_motion_dot": 9.228e-05,
        "meta_mean_motion_ddot": 0,
        "tle_line1": "1 31169U 99025BHX 25337.82048461  .00009228  00000+0  37910-2 0  9990",
        "tle_line2": "2 31169  99.1573   3.8489 0058130  43.7006 316.8753 14.26310452569770"
      },
      "geometry": {
        "type": "Point",
        "coordinates": [
          -156.4858729929164,
          60.39025858193958
        ]
      }
    },
    {
      "type": "Feature",
      "properties": {
        "norad_id": 31171,
        "name": "FENGYUN 1C DEB",
        "group": "fengyun-1c-debris",
        "lat": 38.1520252379194,
        "lon": -35.405875932462806,
        "alt_km": 724.2212124053949,
        "timestamp": "2025-12-06T20:37:56.353121+00:00",
        "meta_object_name": "FENGYUN 1C DEB",
        "meta_object_id": "1999-025BHZ",
        "meta_epoch": "2025-12-06T11:07:26.742144",
        "meta_mean_motion": 14.345202,
        "meta_eccentricity": 0.0155441,
        "meta_inclination": 98.0154,
        "meta_ra_of_asc_node": 330.5815,
        "meta_arg_of_pericenter": 335.5193,
        "meta_mean_anomaly": 176.7826,
        "meta_ephemeris_type": 0,
        "meta_classification_type": "U",
        "meta_norad_cat_id": 31171,
        "meta_element_set_no": 999,
        "meta_rev_at_epoch": 95740,
        "meta_bstar": 0.0093140831,
        "meta_mean_motion_dot": 0.00030181,
        "meta_mean_motion_ddot": 0,
        "tle_line1": "1 31171U 99025BHZ 25340.46350396  .00030181  00000+0  93141-2 0  9990",
        "tle_line2": "2 31171  98.0154 330.5815 0155441 335.5193 176.7826 14.34520200957409"
      },
      "geometry": {
        "type": "Point",
        "coordinates": [
          -35.405875932462806,
          38.1520252379194
        ]
      }
    },
    {
      "type": "Feature",
      "properties": {
        "norad_id": 31172,
        "name": "FENGYUN 1C DEB",
        "group": "fengyun-1c-debris",
        "lat": 3.3860281827754375,
        "lon": -14.99615783223145,
        "alt_km": 764.6536618643977,
        "timestamp": "2025-12-06T20:37:56.353132+00:00",
        "meta_object_name": "FENGYUN 1C DEB",
        "meta_object_id": "1999-025BJA",
        "meta_epoch": "2025-12-06T07:11:46.987296",
        "meta_mean_motion": 14.31503344,
        "meta_eccentricity": 0.01481307,
        "meta_inclination": 98.4249,
        "meta_ra_of_asc_node": 344.9629,
        "meta_arg_of_pericenter": 287.7366,
        "meta_mean_anomaly": 70.7698,
        "meta_ephemeris_type": 0,
        "meta_classification_type": "U",
        "meta_norad_cat_id": 31172,
        "meta_element_set_no": 999,
        "meta_rev_at_epoch": 97534,
        "meta_bstar": 0.00031980339,
        "meta_mean_motion_dot": 9.12e-06,
        "meta_mean_motion_ddot": 0,
        "tle_line1": "1 31172U 99025BJA 25340.29984939  .00000912  00000+0  31980-3 0  9991",
        "tle_line2": "2 31172  98.4249 344.9629 0148130 287.7366  70.7698 14.31503344975348"
      },
      "geometry": {
        "type": "Point",
        "coordinates": [
          -14.99615783223145,
          3.3860281827754375
        ]
      }
    },
    {
      "type": "Feature",
      "properties": {
        "norad_id": 31175,
        "name": "FENGYUN 1C DEB",
        "group": "fengyun-1c-debris",
        "lat": 23.50942497092713,
        "lon": -22.728047579775144,
        "alt_km": 741.7608968928662,
        "timestamp": "2025-12-06T20:37:56.353143+00:00",
        "meta_object_name": "FENGYUN 1C DEB",
        "meta_object_id": "1999-025BJD",
        "meta_epoch": "2025-12-06T05:42:56.384640",
        "meta_mean_motion": 14.59668423,
        "meta_eccentricity": 0.00719012,
        "meta_inclination": 98.3958,
        "meta_ra_of_asc_node": 340.3266,
        "meta_arg_of_pericenter": 187.2725,
        "meta_mean_anomaly": 172.7438,
        "meta_ephemeris_type": 0,
        "meta_classification_type": "U",
        "meta_norad_cat_id": 31175,
        "meta_element_set_no": 999,
        "meta_rev_at_epoch": 65544,
        "meta_bstar": 0.0075853788,
        "meta_mean_motion_dot": 0.00037608,
        "meta_mean_motion_ddot": 0,
        "tle_line1": "1 31175U 99025BJD 25340.23815260  .00037608  00000+0  75854-2 0  9997",
        "tle_line2": "2 31175  98.3958 340.3266 0071901 187.2725 172.7438 14.59668423655449"
      },
      "geometry": {
        "type": "Point",
        "coordinates": [
          -22.728047579775144,
          23.50942497092713
        ]
      }
    },
    {
      "type": "Feature",
      "properties": {
        "norad_id": 31177,
        "name": "FENGYUN 1C DEB",
        "group": "fengyun-1c-debris",
        "lat": -81.17115366012105,
        "lon": -8.047719877611815,
        "alt_km": 914.2852635632698,
        "timestamp": "2025-12-06T20:37:56.353154+00:00",
        "meta_object_name": "FENGYUN 1C DEB",
        "meta_object_id": "1999-025BJF",
        "meta_epoch": "2025-12-01T06:04:03.773280",
        "meta_mean_motion": 13.62101426,
        "meta_eccentricity": 0.0311511,
        "meta_inclination": 98.7576,
        "meta_ra_of_asc_node": 249.8401,
        "meta_arg_of_pericenter": 343.5186,
        "meta_mean_anomaly": 168.581,
        "meta_ephemeris_type": 0,
        "meta_classification_type": "U",
        "meta_norad_cat_id": 31177,
        "meta_element_set_no": 999,
        "meta_rev_at_epoch": 66055,
        "meta_bstar": 0.0077346,
        "meta_mean_motion_dot": 8.228e-05,
        "meta_mean_motion_ddot": 0,
        "tle_line1": "1 31177U 99025BJF 25335.25282145  .00008228  00000+0  77346-2 0  9999",
        "tle_line2": "2 31177  98.7576 249.8401 0311511 343.5186 168.5810 13.62101426660550"
      },
      "geometry": {
        "type": "Point",
        "coordinates": [
          -8.047719877611815,
          -81.17115366012105
        ]
      }
    }
  ]
}